0 MKA-FKI 1
1 38711U 12039E   13281.80380358  .00000269  00000-0  13789-3 0  4729
2 38711 098.9402 203.9042 0011534 163.1631 196.9900 14.23735044 63094
0 MKA-FKI 1
1 38711U 12039E   13282.85796593 -.00000217  00000-0 -74895-4 0  4739
2 38711 098.9400 204.9762 0011379 160.7451 199.4142 14.23732988 63249
0 MKA-FKI 1
1 38711U 12039E   13284.26351311  .00000149  00000-0  85151-4 0  4741
2 38711 098.9405 206.4056 0011357 156.6608 203.5132 14.23735108 63446
0 MKA-FKI 1
1 38711U 12039E   13286.44210738  .00000180  00000-0  98696-4 0  4765
2 38711 098.9395 208.6195 0011645 151.0131 209.1672 14.23736348 63754
0 MKA-FKI 1
1 38711U 12039E   13287.70710033 -.00000030  00000-0  68082-5 0  4771
2 38711 098.9392 209.9046 0011623 146.8042 213.3888 14.23735616 63932
0 MKA-FKI 1
1 38711U 12039E   13288.76125822  .00000226  00000-0  11887-3 0  4780
2 38711 098.9398 210.9767 0011708 143.8535 216.3465 14.23737267 64083
0 MKA-FKI 1
1 38711U 12039E   13289.39375186  .00000345  00000-0  17107-3 0  4794
2 38711 098.9405 211.6207 0011788 142.0535 218.1461 14.23738185 64174
0 MKA-FKI 1
1 38711U 12039E   13289.88569228  .00000378  00000-0  18554-3 0  4805
2 38711 098.9411 212.1210 0011856 140.5693 219.6342 14.23738602 64241
0 MKA-FKI 1
1 38711U 12039E   13290.58846420  .00000202  00000-0  10866-3 0  4811
2 38711 098.9434 212.8368 0012134 138.4507 221.7561 14.23737983 64346
0 MKA-FKI 1
1 38711U 12039E   13290.72901923  .00000256  00000-0  13211-3 0  4824
2 38711 098.9434 212.9791 0012115 137.8765 222.3351 14.23738366 64367
0 MKA-FKI 1
1 38711U 12039E   13291.01012834 -.00000034  00000-0  53560-5 0  4829
2 38711 098.9429 213.2647 0012140 136.5981 223.6135 14.23737238 64405
0 MKA-FKI 1
1 38711U 12039E   13292.34539568 -.00000156  00000-0 -48241-4 0  4830
2 38711 098.9433 214.6236 0012245 132.9495 227.2708 14.23736830 64598
0 MKA-FKI 1
1 38711U 12039E   13293.82121417  .00000496  00000-0  23717-3 0  4840
2 38711 098.9432 216.1242 0012242 128.4392 231.7921 14.23740609 64804
0 MKA-FKI 1
1 38711U 12039E   13294.87536878  .00000428  00000-0  20719-3 0  4852
2 38711 098.9433 217.1956 0012300 125.5501 234.6786 14.23741089 64953
